[{"OBJECT_NAME":"HORUS 2","OBJECT_ID":"2023-032A","EPOCH":"2026-03-09T22:32:30.893280","MEAN_MOTION":15.23604467,"ECCENTRICITY":0.00034558,"INCLINATION":97.3597,"RA_OF_ASC_NODE":146.3013,"ARG_OF_PERICENTER":105.0024,"MEAN_ANOMALY":255.1596,"EPHEMERIS_TYPE":0,"CLASSIFICATION_TYPE":"U","NORAD_CAT_ID":55844,"ELEMENT_SET_NO":999,"REV_AT_EPOCH":16637,"BSTAR":0.00034847707,"MEAN_MOTION_DOT":8.276e-5,"MEAN_MOTION_DDOT":0},{"OBJECT_NAME":"YAOGAN-43 03A","OBJECT_ID":"2024-190A","EPOCH":"2026-03-09T13:01:38.517888","MEAN_MOTION":15.2296971,"ECCENTRICITY":0.00052894,"INCLINATION":34.99,"RA_OF_ASC_NODE":104.4598,"ARG_OF_PERICENTER":156.9763,"MEAN_ANOMALY":203.119,"EPHEMERIS_TYPE":0,"CLASSIFICATION_TYPE":"U","NORAD_CAT_ID":61617,"ELEMENT_SET_NO":999,"REV_AT_EPOCH":7666,"BSTAR":0.00039712006,"MEAN_MOTION_DOT":9.537e-5,"MEAN_MOTION_DDOT":0}]
